STARLINK-1363
1 45568U 20025AP  26090.91671296  .00194041  00000+0  89144-3 0  9992
2 45568  53.0383 286.2482 0004272 146.1138 272.1749 15.82565260  5998
